STARLINK-32147          
1 60152U 24120T   25318.48408654  .00007558  00000+0  26680-3 0  9990
2 60152  53.1595 135.3301 0002580 113.6717 246.4555 15.30230316 78731
STARLINK-32131          
1 60153U 24120U   25318.83334491  .00036444  00000+0  12370-2 0  9993
2 60153  53.1568 133.5234 0000931 111.3803 106.6097 15.30188337  5908
STARLINK-32145          
1 60154U 24120V   25318.76742227 -.00000365  00000+0 -18265-6 0  9994
2 60154  53.1584 133.5373 0001678  51.6011 308.5140 15.30195778 78782
STARLINK-32137          
1 60155U 24120W   25318.78431478  .00014257  00000+0  49262-3 0  9991
2 60155  53.1570 133.6463 0000837 118.0821 242.0265 15.30195909 78788
STARLINK-32048          
1 60156U 24120X   25318.78748987 -.00004577  00000+0 -14257-3 0  9990
2 60156  53.1599 133.6665 0001195  95.2905 264.8232 15.30181649 78783
STARLINK-32129          
1 60157U 24120Y   25318.49044813 -.00002631  00000+0 -76713-4 0  9991
2 60157  53.1570 135.3647 0001940 104.1338 255.9878 15.30200962 78811
ZHONGXING-3A            
1 60179U 24122A   25318.85649816 -.00000309  00000+0  00000+0 0  9991
2 60179   0.0351  78.2683 0001400 172.0453 213.8114  1.00270681  5162
ALOS-4 (DAICHI-4)       
1 60182U 24123A   25318.83000017 -.00001033  00000+0 -13156-3 0  9994
2 60182  97.9231  54.0743 0001299  95.2409 264.8950 14.79464770 74186
STARLINK-11168 [DTC]    
1 60183U 24124A   25318.43833987 -.00004274  00000+0 -30463-4 0  9993
2 60183  53.1572   9.3275 0000906  96.4397 263.6724 15.69695442 79627
STARLINK-11187 [DTC]    
1 60184U 24124B   25318.43344145  .00045965  00000+0  38176-3 0  9995
2 60184  53.1579   9.2943 0000975  75.9750 284.1376 15.69734563 78434
STARLINK-11180 [DTC]    
1 60185U 24124C   25318.42852784  .00000504  00000+0  90286-5 0  9990
2 60185  53.1574   9.2604 0001477  87.4643 272.6544 15.69703579 78433
STARLINK-11197 [DTC]    
1 60186U 24124D   25318.42362367 -.00003021  00000+0 -20089-4 0  9996
2 60186  53.1588   9.2269 0000986  87.7092 272.4039 15.69710392 78439
STARLINK-11194 [DTC]    
1 60187U 24124E   25318.54604661 -.00000685  00000+0 -79309-6 0  9990
2 60187  53.1597   8.5645 0001419  97.5839 262.5340 15.69720432 78453
STARLINK-11189 [DTC]    
1 60188U 24124F   25318.54124168 -.00002632  00000+0 -16860-4 0  9995
2 60188  53.1600   9.2664 0001541 107.3464 252.7722 15.69722308 78446
STARLINK-11183 [DTC]    
1 60189U 24124G   25318.53635316  .00068749  00000+0  56705-3 0  9997
2 60189  53.1577   9.2349 0001288  91.3463 268.7703 15.69734085 78440
STARLINK-11179 [DTC]    
1 60190U 24124H   25318.40411030  .00030079  00000+0  25217-3 0  9999
2 60190  53.1578   9.8318 0001276  64.5288 295.5862 15.69715357 78422
STARLINK-11175 [DTC]    
1 60191U 24124J   25318.84488177  .00034278  00000+0  28636-3 0  9997
2 60191  53.1584   7.6004 0001073 110.3602 249.7531 15.69731749 78497
STARLINK-11173 [DTC]    
1 60192U 24124K   25318.52163057 -.00019348  00000+0 -15482-3 0  9998
2 60192  53.1592   9.1367 0002938 115.8952 244.2369 15.69760550 78441
STARLINK-11172 [DTC]    
1 60193U 24124L   25318.64406713  .00047474  00000+0  39408-3 0  9994
2 60193  53.1568   8.4732 0001407 125.4252 234.6897 15.69733247 78467
STARLINK-11152 [DTC]    
1 60194U 24124M   25318.57549259  .00088801  00000+0  72866-3 0  9994
2 60194  53.1572   8.7573 0001273 131.7156 228.3971 15.69754163 79647
STARLINK-11193 [DTC]    
1 60195U 24124N   25318.76159213  .00055170  00000+0  45644-3 0  9990
2 60195  53.1583   7.7835 0001258  58.4307 301.6833 15.69750594 78483
STARLINK-31869          
1 60196U 24124P   25318.51837483 -.00001215  00000+0 -28886-4 0  9999
2 60196  53.1557 137.3720 0001961  93.1335 266.9890 15.30196254 76665
STARLINK-32023          
1 60197U 24124Q   25317.50816453 -.00002276  00000+0 -64791-4 0  9995
2 60197  53.1591 142.4430 0002172  77.6567 282.4677 15.30169397 76505
STARLINK-32046          
1 60198U 24124R   25318.79122829 -.00010307  00000+0 -33579-3 0  9998
2 60198  53.1590 136.2274 0001848 112.5562 247.5634 15.30249694 77937
STARLINK-32049          
1 60199U 24124S   25318.47839029 -.00000451  00000+0 -31054-5 0  9998
2 60199  53.1587 137.8296 0001016 118.2186 241.8918 15.30172274 77882
STARLINK-32002          
1 60200U 24124T   25318.79229368  .00000213  00000+0  19325-4 0  9995
2 60200  53.1602 136.2359 0001156  85.9710 274.1423 15.30192283 76706
STARLINK-32020          
1 60201U 24124U   25318.76485125 -.00009079  00000+0 -29442-3 0  9999
2 60201  53.1601 136.0594 0002519 115.5876 244.5385 15.30230660 76702
STARLINK-32041          
1 60202U 24124V   25318.78914201 -.00001576  00000+0 -41154-4 0  9993
2 60202  53.1596 136.2117 0001406  55.1153 304.9979 15.30148647 77906
2024-125A               
1 60203U 24125A   25318.51771777  .00034896  00000+0  73452-3 0  9999
2 60203  97.2548 169.2734 0014171 287.1902  72.7796 15.45101686 76270
2024-125C               
1 60205U 24125C   25318.07325373  .00117507  00000+0  16754-2 0  9991
2 60205  97.2498 172.0075 0008524 271.9229  88.1049 15.55860978 76420
R5-S4                   
1 60206U 24125D   25318.09115895  .00031214  00000+0  89100-3 0  9996
2 60206  97.2604 166.3554 0017610 290.8978  69.0381 15.35817275 76039
R5-S2                   
1 60207U 24125E   25318.52032870  .00019838  00000+0  54813-3 0  9997
2 60207  97.2584 167.0947 0017423 290.2092  69.7279 15.36927419 76120
TECHEDSAT-11            
1 60208U 24125F   25318.57693439  .00021481  00000+0  57601-3 0  9992
2 60208  97.2588 167.3345 0017120 289.3958  70.5437 15.37846378 76158
MESAT1                  
1 60209U 24125G   25318.55106656  .00032932  00000+0  71985-3 0  9995
2 60209  97.2563 168.9456 0014045 291.0303  68.9443 15.43999825 76251
TIANHUI 5C              
1 60211U 24126A   25318.59276866  .00001086  00000+0  12550-3 0  9993
2 60211  97.8189 324.2350 0001867  71.9390 288.2029 14.87594645 73985
TIANHUI 5D              
1 60212U 24126B   25318.59276794  .00001052  00000+0  12174-3 0  9999
2 60212  97.8204 324.2412 0002039  91.4634 268.6816 14.87594474 73990
TURKSAT 6A              
1 60233U 24127A   25318.10478155  .00000147  00000+0  00000+0 0  9990
2 60233   0.0406 212.4605 0005416  18.4993 262.2588  1.00273175  4863
GRBBETA                 
1 60237U 24128C   25318.50582154  .00007363  00000+0  52107-3 0  9990
2 60237  61.9901 248.2957 0057014  90.7246 270.0379 15.04373130 73946
ISTSAT-1                
1 60238U 24128D   25318.88854968  .00010960  00000+0  69810-3 0  9993
2 60238  61.9893 241.9119 0055098  89.8630 270.8777 15.07954141 74102
OOV-CUBE (TUBSAT-30)    
1 60240U 24128F   25318.31025252  .00005646  00000+0  43583-3 0  9994
2 60240  61.9954 254.1184 0058863  88.2674 272.5157 15.01365551 73830
CURIUM ONE              
1 60242U 24128H   25318.49190601  .00012356  00000+0  77818-3 0  9990
2 60242  61.9797 243.8654 0056898  87.5722 273.1884 15.08189587 74022
ROBUSTA-3A (MEDITERRAN*)
1 60243U 24128J   25318.28473866  .00013845  00000+0  88488-3 0  9994
2 60243  61.9871 246.0075 0056671  85.0203 275.7356 15.07583425 73977
CATSAT                  
1 60246U 24125J   25318.13389739  .00063281  00000+0  16543-2 0  9994
2 60246  97.2368 165.8745 0034036 250.5007 109.2560 15.37938511 74126
GAOFEN-11 05            
1 60249U 24130A   25318.87347347  .00009573  00000+0  40547-3 0  9999
2 60249  97.4227  34.8751 0007544 122.3172 237.8797 15.23345459 52832
STARLINK-32138          
1 60255U 24131A   25318.78044447  .00006167  00000+0  22041-3 0  9997
2 60255  53.1611 226.3041 0000652  53.5460 306.5601 15.30160174 74427
STARLINK-32212          
1 60256U 24131B   25318.13993911  .00002433  00000+0  94240-4 0  9999
2 60256  53.1599 229.4315 0001282  71.3080 288.8060 15.30206698 74026
STARLINK-32166          
1 60257U 24131C   25318.14632138 -.00007913  00000+0 -25577-3 0  9998
2 60257  53.1604 229.4595 0001274  93.8067 266.3079 15.30146067 74023
STARLINK-32200          
1 60258U 24131D   25318.13785155 -.00001479  00000+0 -37831-4 0  9994
2 60258  53.1602 229.4091 0001074  63.3340 296.7771 15.30180720 74027
STARLINK-32207          
1 60259U 24131E   25318.72356584  .00005544  00000+0  19930-3 0  9994
2 60259  53.1602 226.6756 0000977  78.0350 282.0761 15.30174233 74119
STARLINK-32125          
1 60260U 24131F   25318.47697632  .00000027  00000+0  13039-4 0  9996
2 60260  53.1607 227.2552 0001758  86.9310 273.1892 15.30186453 74088
STARLINK-32160          
1 60261U 24131G   25318.72884859  .00004531  00000+0  16506-3 0  9999
2 60261  53.1597 226.6897 0001809  98.5562 261.5644 15.30192614 74168
STARLINK-32163          
1 60262U 24131H   25318.76144682  .00012612  00000+0  43735-3 0  9990
2 60262  53.1599 226.1859 0001394  87.5710 272.5450 15.30189756 74122
STARLINK-32148          
1 60263U 24131J   25318.77094198 -.00001019  00000+0 -22289-4 0  9991
2 60263  53.1612 226.2451 0001427 105.7263 254.3895 15.30193413 74172
STARLINK-32121          
1 60264U 24131K   25318.77410817  .00002125  00000+0  83868-4 0  9999
2 60264  53.1578 226.2719 0001266 104.7080 255.4061 15.30194706 74171
STARLINK-32120          
1 60265U 24131L   25318.73730275  .00003833  00000+0  14158-3 0  9991
2 60265  53.1590 226.7420 0001239  77.1104 283.0035 15.30176006 74160
STARLINK-32205          
1 60266U 24131M   25318.78675924  .00000772  00000+0  38185-4 0  9992
2 60266  53.1606 226.3555 0000940 103.6074 256.5032 15.30210743 74128
STARLINK-32158          
1 60267U 24131N   25318.16624235 -.00002255  00000+0 -64097-4 0  9995
2 60267  53.1613 228.8685 0001403  85.1571 274.9590 15.30173413 73932
STARLINK-32167          
1 60268U 24131P   25318.73932079  .00001306  00000+0  56315-4 0  9995
2 60268  53.1610 226.0613 0001095 102.5557 257.5566 15.30130578 74123
STARLINK-32144          
1 60269U 24131Q   25318.76775608  .00000905  00000+0  42623-4 0  9993
2 60269  53.1602 226.2234 0000362 329.5459  30.5521 15.30215473 74177
